OBJECT_NAME,OBJECT_ID,EPOCH,MEAN_MOTION,ECCENTRICITY,INCLINATION,RA_OF_ASC_NODE,ARG_OF_PERICENTER,MEAN_ANOMALY,EPHEMERIS_TYPE,CLASSIFICATION_TYPE,NORAD_CAT_ID,ELEMENT_SET_NO,REV_AT_EPOCH,BSTAR,MEAN_MOTION_DOT,MEAN_MOTION_DDOT
ONEWEB-0535,2022-138AL,2026-06-14T10:13:01.000128,13.19724986,.0002179,87.9175,305.5085,95.9147,264.2234,0,U,54147,999,17647,.18673E-4,.2E-6,0
ONEWEB-0536,2022-138AM,2026-06-14T08:10:44.986080,13.20771481,.0002932,87.9181,275.0252,109.5781,250.5669,0,U,54148,999,17892,.94424E-4,.51E-6,0
ONEWEB-0527,2022-166A,2026-06-14T10:50:13.518240,13.21813211,.00019,87.9255,244.5415,100.6796,259.4552,0,U,54642,999,17117,.43889E-2,.1826E-4,0
ONEWEB-0528,2022-166B,2026-06-14T10:51:26.610912,13.21824899,.0001859,87.9255,244.5437,102.9853,257.1489,0,U,54643,999,17118,.21869E-3,.103E-5,0
ONEWEB-0539,2022-166C,2026-06-14T11:45:58.614336,13.21826870,.0001996,87.9261,244.5078,92.7217,267.4146,0,U,54644,999,17118,.18392E-3,.89E-6,0
ONEWEB-0540,2022-166D,2026-06-14T06:28:51.029184,13.21826856,.0002047,87.9253,244.5820,95.5110,264.6258,0,U,54645,999,17114,.3829E-4,.29E-6,0
ONEWEB-0542,2022-166E,2026-06-14T06:33:29.350368,13.21827791,.0002042,87.9263,244.5495,90.0864,270.0504,0,U,54646,999,17115,.10503E-3,.56E-6,0
ONEWEB-0545,2022-166F,2026-06-14T11:09:37.315872,13.21828351,.0002205,87.9254,244.5233,85.6408,274.4977,0,U,54647,999,17114,.25611E-3,.119E-5,0
ONEWEB-0580,2022-166G,2026-06-14T12:22:17.402016,13.21827994,.0002274,87.9255,244.5131,89.6598,270.4796,0,U,54648,999,17119,.40438E-4,.3E-6,0
ONEWEB-0582,2022-166H,2026-06-14T11:33:52.041312,13.21826584,.000221,87.9256,244.5125,87.8002,272.3385,0,U,54649,999,17116,.10086E-3,.55E-6,0
ONEWEB-0583,2022-166J,2026-06-14T06:23:48.039936,13.21827844,.000206,87.9252,244.5787,95.6209,264.5160,0,U,54650,999,17114,.11257E-3,.6E-6,0
ONEWEB-0584,2022-166K,2026-06-14T12:19:52.486752,13.21826089,.0002126,87.9252,244.5149,96.3513,263.7863,0,U,54651,999,17116,.2233E-3,.105E-5,0
ONEWEB-0585,2022-166L,2026-06-14T05:37:47.574624,13.21826943,.0002002,87.9256,244.5573,103.2895,256.8462,0,U,54652,999,17113,.30911E-3,.141E-5,0
ONEWEB-0586,2022-166M,2026-06-14T11:24:09.260352,13.21824222,.0002018,87.9255,244.5352,93.9484,266.1881,0,U,54653,999,17116,.3758E-3,.168E-5,0
ONEWEB-0587,2022-166N,2026-06-14T11:38:41.222112,13.21824178,.0002009,87.9266,244.5064,108.8316,251.3036,0,U,54654,999,17132,.29158E-3,.133E-5,0
ONEWEB-0589,2022-166P,2026-06-14T11:19:18.709248,13.21824590,.000251,87.9253,244.5217,80.2274,279.9144,0,U,54655,999,17118,.24793E-3,.115E-5,0
ONEWEB-0590,2022-166Q,2026-06-14T06:28:27.369408,13.21827228,.0002495,87.9262,244.5518,101.5348,258.6066,0,U,54656,999,17114,-.26541E-4,.2E-7,0
ONEWEB-0591,2022-166R,2026-06-14T12:12:37.759104,13.21826700,.0002073,87.9253,244.5189,98.5333,261.6036,0,U,54657,999,17120,-.23001E-3,-.82E-6,0
ONEWEB-0592,2022-166S,2026-06-14T12:17:27.295008,13.21828243,.0002034,87.9263,244.4963,98.2609,261.8756,0,U,54658,999,17108,.21541E-3,.102E-5,0
ONEWEB-0593,2022-166T,2026-06-14T10:59:55.480128,13.21825589,.0001933,87.9254,244.5188,94.4830,265.6525,0,U,54659,999,17118,-.95161E-4,-.26E-6,0
ONEWEB-0594,2022-166U,2026-06-14T11:29:01.449600,13.21822197,.0001917,87.9255,244.5312,102.4344,257.7004,0,U,54660,999,17120,.24264E-2,.1015E-4,0
ONEWEB-0595,2022-166V,2026-06-14T10:55:05.602080,13.21827577,.0002099,87.9262,244.5163,105.5743,254.5622,0,U,54661,999,17117,.92085E-4,.51E-6,0
ONEWEB-0596,2022-166W,2026-06-14T06:40:46.104096,13.21827056,.0002048,87.9256,244.5631,101.6792,258.4572,0,U,54662,999,17115,.20194E-3,.96E-6,0
ONEWEB-0597,2022-166X,2026-06-14T11:41:07.973376,13.21826114,.0002033,87.9253,244.5249,95.4378,264.6988,0,U,54663,999,17118,-.31849E-4,0,0
ONEWEB-0600,2022-166Y,2026-06-14T11:14:27.843648,13.21824654,.0001879,87.9255,244.5199,96.0643,264.0705,0,U,54664,999,17115,.30657E-3,.14E-5,0
ONEWEB-0601,2022-166Z,2026-06-14T11:02:21.859008,13.21825994,.0002141,87.9252,244.5376,92.2858,267.8521,0,U,54665,999,17134,.15463E-3,.77E-6,0
ONEWEB-0602,2022-166AA,2026-06-14T06:34:42.185568,13.21826459,.0001775,87.9254,244.5806,94.6305,265.5032,0,U,54666,999,17116,.24751E-4,.23E-6,0
ONEWEB-0603,2022-166AB,2026-06-14T06:43:11.663904,13.21826605,.0001987,87.9263,244.5362,96.3510,263.7851,0,U,54667,999,17109,-.55977E-4,-.1E-6,0
ONEWEB-0604,2022-166AC,2026-06-14T06:26:13.247232,13.21827816,.0001996,87.9263,244.5542,101.2229,258.9130,0,U,54668,999,17105,.1247E-3,.65E-6,0
ONEWEB-0605,2022-166AD,2026-06-14T06:16:33.116160,13.21826988,.0002576,87.9255,244.5691,91.1964,268.9465,0,U,54669,999,17112,.25683E-3,.119E-5,0
ONEWEB-0606,2022-166AE,2026-06-14T12:15:02.644128,13.21827065,.0001966,87.9256,244.5321,103.7317,256.4035,0,U,54670,999,17121,-.41512E-4,-.4E-7,0
