ONEWEB-0535             
1 54147U 22138AL  26165.42570602  .00000020  00000+0  18673-4 0  9993
2 54147  87.9175 305.5085 0002179  95.9147 264.2234 13.19724986176478
ONEWEB-0536             
1 54148U 22138AM  26165.34079845  .00000051  00000+0  94424-4 0  9990
2 54148  87.9181 275.0252 0002932 109.5781 250.5669 13.20771481178922
ONEWEB-0527             
1 54642U 22166A   26165.45154535  .00001826  00000+0  43889-2 0  9990
2 54642  87.9255 244.5415 0001900 100.6796 259.4552 13.21813211171175
ONEWEB-0528             
1 54643U 22166B   26165.45239133  .00000103  00000+0  21869-3 0  9991
2 54643  87.9255 244.5437 0001859 102.9853 257.1489 13.21824899171181
ONEWEB-0539             
1 54644U 22166C   26165.49026174  .00000089  00000+0  18392-3 0  9995
2 54644  87.9261 244.5078 0001996  92.7217 267.4146 13.21826870171187
ONEWEB-0540             
1 54645U 22166D   26165.27003506  .00000029  00000+0  38290-4 0  9990
2 54645  87.9253 244.5820 0002047  95.5110 264.6258 13.21826856171148
ONEWEB-0542             
1 54646U 22166E   26165.27325637  .00000056  00000+0  10503-3 0  9999
2 54646  87.9263 244.5495 0002042  90.0864 270.0504 13.21827791171154
ONEWEB-0545             
1 54647U 22166F   26165.46501523  .00000119  00000+0  25611-3 0  9997
2 54647  87.9254 244.5233 0002205  85.6408 274.4977 13.21828351171144
ONEWEB-0580             
1 54648U 22166G   26165.51547919  .00000030  00000+0  40438-4 0  9990
2 54648  87.9255 244.5131 0002274  89.6598 270.4796 13.21827994171195
ONEWEB-0582             
1 54649U 22166H   26165.48185233  .00000055  00000+0  10086-3 0  9996
2 54649  87.9256 244.5125 0002210  87.8002 272.3385 13.21826584171166
ONEWEB-0583             
1 54650U 22166J   26165.26652824  .00000060  00000+0  11257-3 0  9996
2 54650  87.9252 244.5787 0002060  95.6209 264.5160 13.21827844171149
ONEWEB-0584             
1 54651U 22166K   26165.51380193  .00000105  00000+0  22330-3 0  9996
2 54651  87.9252 244.5149 0002126  96.3513 263.7863 13.21826089171164
ONEWEB-0585             
1 54652U 22166L   26165.23457841  .00000141  00000+0  30911-3 0  9995
2 54652  87.9256 244.5573 0002002 103.2895 256.8462 13.21826943171138
ONEWEB-0586             
1 54653U 22166M   26165.47510718  .00000168  00000+0  37580-3 0  9993
2 54653  87.9255 244.5352 0002018  93.9484 266.1881 13.21824222171169
ONEWEB-0587             
1 54654U 22166N   26165.48519933  .00000133  00000+0  29158-3 0  9997
2 54654  87.9266 244.5064 0002009 108.8316 251.3036 13.21824178171328
ONEWEB-0589             
1 54655U 22166P   26165.47174432  .00000115  00000+0  24793-3 0  9998
2 54655  87.9253 244.5217 0002510  80.2274 279.9144 13.21824590171186
ONEWEB-0590             
1 54656U 22166Q   26165.26976122  .00000002  00000+0 -26541-4 0  9992
2 54656  87.9262 244.5518 0002495 101.5348 258.6066 13.21827228171146
ONEWEB-0591             
1 54657U 22166R   26165.50877036 -.00000082  00000+0 -23001-3 0  9990
2 54657  87.9253 244.5189 0002073  98.5333 261.6036 13.21826700171204
ONEWEB-0592             
1 54658U 22166S   26165.51212147  .00000102  00000+0  21541-3 0  9996
2 54658  87.9263 244.4963 0002034  98.2609 261.8756 13.21828243171086
ONEWEB-0593             
1 54659U 22166T   26165.45828102 -.00000026  00000+0 -95161-4 0  9991
2 54659  87.9254 244.5188 0001933  94.4830 265.6525 13.21825589171185
ONEWEB-0594             
1 54660U 22166U   26165.47848900  .00001015  00000+0  24264-2 0  9994
2 54660  87.9255 244.5312 0001917 102.4344 257.7004 13.21822197171208
ONEWEB-0595             
1 54661U 22166V   26165.45492595  .00000051  00000+0  92085-4 0  9995
2 54661  87.9262 244.5163 0002099 105.5743 254.5622 13.21827577171174
ONEWEB-0596             
1 54662U 22166W   26165.27831139  .00000096  00000+0  20194-3 0  9997
2 54662  87.9256 244.5631 0002048 101.6792 258.4572 13.21827056171150
ONEWEB-0597             
1 54663U 22166X   26165.48689784  .00000000  00000+0 -31849-4 0  9994
2 54663  87.9253 244.5249 0002033  95.4378 264.6988 13.21826114171184
ONEWEB-0600             
1 54664U 22166Y   26165.46837782  .00000140  00000+0  30657-3 0  9995
2 54664  87.9255 244.5199 0001879  96.0643 264.0705 13.21824654171155
ONEWEB-0601             
1 54665U 22166Z   26165.45997522  .00000077  00000+0  15463-3 0  9991
2 54665  87.9252 244.5376 0002141  92.2858 267.8521 13.21825994171345
ONEWEB-0602             
1 54666U 22166AA  26165.27409937  .00000023  00000+0  24751-4 0  9992
2 54666  87.9254 244.5806 0001775  94.6305 265.5032 13.21826459171160
ONEWEB-0603             
1 54667U 22166AB  26165.27999611 -.00000010  00000+0 -55977-4 0  9998
2 54667  87.9263 244.5362 0001987  96.3510 263.7851 13.21826605171094
ONEWEB-0604             
1 54668U 22166AC  26165.26820888  .00000065  00000+0  12470-3 0  9995
2 54668  87.9263 244.5542 0001996 101.2229 258.9130 13.21827816171055
ONEWEB-0605             
1 54669U 22166AD  26165.26149440  .00000119  00000+0  25683-3 0  9994
2 54669  87.9255 244.5691 0002576  91.1964 268.9465 13.21826988171129
ONEWEB-0606             
1 54670U 22166AE  26165.51044727 -.00000004  00000+0 -41512-4 0  9991
2 54670  87.9256 244.5321 0001966 103.7317 256.4035 13.21827065171218
